{"type": "FeatureCollection", "features": [ {"type": "Feature", "properties": {"norad_id": 33825, "name": "COSMOS 2251 DEB", "group": "cosmos-2251-debris", "lat": 61.428319539819825, "lon": 165.16169404468482, "alt_km": 694.4038998949118, "timestamp": "2025-12-18T07:01:54.982152+00:00", "meta": {"OBJECT_NAME": "COSMOS 2251 DEB", "OBJECT_ID": "1993-036BS", "EPOCH": "2025-12-17T13:16:56.823744", "MEAN_MOTION": 14.69804715, "ECCENTRICITY": 0.00847928, "INCLINATION": 73.985, "RA_OF_ASC_NODE": 18.4304, "ARG_OF_PERICENTER": 344.3163, "MEAN_ANOMALY": 177.249, "EPHEMERIS_TYPE": 0, "CLASSIFICATION_TYPE": "U", "NORAD_CAT_ID": 33825, "ELEMENT_SET_NO": 999, "REV_AT_EPOCH": 88950, "BSTAR": 0.0006054093, "MEAN_MOTION_DOT": 3.787e-05, "MEAN_MOTION_DDOT": 0}, "tle": {"line1": "1 33825U 93036BS  25351.55343546  .00003787  00000+0  60541-3 0  9996", "line2": "2 33825  73.9850  18.4304 0084792 344.3163 177.2490 14.69804715889504"}}, "geometry": {"type": "Point", "coordinates": [165.16169404468482, 61.428319539819825]}}, {"type": "Feature", "properties": {"norad_id": 33826, "name": "COSMOS 2251 DEB", "group": "cosmos-2251-debris", "lat": 1.2962457710387487, "lon": 39.80678468986927, "alt_km": 712.2645608217408, "timestamp": "2025-12-18T07:01:54.982163+00:00", "meta": {"OBJECT_NAME": "COSMOS 2251 DEB", "OBJECT_ID": "1993-036BT", "EPOCH": "2025-12-17T13:31:06.742272", "MEAN_MOTION": 14.51746226, "ECCENTRICITY": 0.00827202, "INCLINATION": 74.0649, "RA_OF_ASC_NODE": 40.8077, "ARG_OF_PERICENTER": 83.5495, "MEAN_ANOMALY": 66.6523, "EPHEMERIS_TYPE": 0, "CLASSIFICATION_TYPE": "U", "NORAD_CAT_ID": 33826, "ELEMENT_SET_NO": 999, "REV_AT_EPOCH": 87839, "BSTAR": 0.00050987565, "MEAN_MOTION_DOT": 2.114e-05, "MEAN_MOTION_DDOT": 0}, "tle": {"line1": "1 33826U 93036BT  25351.56327248  .00002114  00000+0  50988-3 0  9996", "line2": "2 33826  74.0649  40.8077 0082720  83.5495  66.6523 14.51746226878394"}}, "geometry": {"type": "Point", "coordinates": [39.80678468986927, 1.2962457710387487]}}, {"type": "Feature", "properties": {"norad_id": 33828, "name": "COSMOS 2251 DEB", "group": "cosmos-2251-debris", "lat": 63.51081325836445, "lon": 12.731509447428156, "alt_km": 758.3962278470526, "timestamp": "2025-12-18T07:01:54.982173+00:00", "meta": {"OBJECT_NAME": "COSMOS 2251 DEB", "OBJECT_ID": "1993-036BV", "EPOCH": "2025-12-17T19:15:06.014016", "MEAN_MOTION": 14.44347912, "ECCENTRICITY": 0.00294878, "INCLINATION": 74.0456, "RA_OF_ASC_NODE": 228.6764, "ARG_OF_PERICENTER": 300.829, "MEAN_ANOMALY": 139.3174, "EPHEMERIS_TYPE": 0, "CLASSIFICATION_TYPE": "U", "NORAD_CAT_ID": 33828, "ELEMENT_SET_NO": 999, "REV_AT_EPOCH": 88386, "BSTAR": 0.00033963182, "MEAN_MOTION_DOT": 1.148e-05, "MEAN_MOTION_DDOT": 0}, "tle": {"line1": "1 33828U 93036BV  25351.80215294  .00001148  00000+0  33963-3 0  9992", "line2": "2 33828  74.0456 228.6764 0029487 300.8290 139.3174 14.44347912883869"}}, "geometry": {"type": "Point", "coordinates": [12.731509447428156, 63.51081325836445]}}, {"type": "Feature", "properties": {"norad_id": 33830, "name": "COSMOS 2251 DEB", "group": "cosmos-2251-debris", "lat": -72.67262263506525, "lon": 152.8751310221461, "alt_km": 631.5733263918428, "timestamp": "2025-12-18T07:01:54.982183+00:00", "meta": {"OBJECT_NAME": "COSMOS 2251 DEB", "OBJECT_ID": "1993-036BX", "EPOCH": "2025-12-17T18:42:56.803104", "MEAN_MOTION": 14.76955052, "ECCENTRICITY": 0.00425119, "INCLINATION": 74.0318, "RA_OF_ASC_NODE": 220.4842, "ARG_OF_PERICENTER": 339.488, "MEAN_ANOMALY": 90.3195, "EPHEMERIS_TYPE": 0, "CLASSIFICATION_TYPE": "U", "NORAD_CAT_ID": 33830, "ELEMENT_SET_NO": 999, "REV_AT_EPOCH": 89546, "BSTAR": 0.00059777445, "MEAN_MOTION_DOT": 4.24e-05, "MEAN_MOTION_DDOT": 0}, "tle": {"line1": "1 33830U 93036BX  25351.77982411  .00004240  00000+0  59777-3 0  9990", "line2": "2 33830  74.0318 220.4842 0042511 339.4880  90.3195 14.76955052895465"}}, "geometry": {"type": "Point", "coordinates": [152.8751310221461, -72.67262263506525]}}, {"type": "Feature", "properties": {"norad_id": 33832, "name": "COSMOS 2251 DEB", "group": "cosmos-2251-debris", "lat": 2.8082394258025696, "lon": -159.81750324554562, "alt_km": 705.1077613197622, "timestamp": "2025-12-18T07:01:54.982220+00:00", "meta": {"OBJECT_NAME": "COSMOS 2251 DEB", "OBJECT_ID": "1993-036BZ", "EPOCH": "2025-12-17T16:31:19.766208", "MEAN_MOTION": 14.60704045, "ECCENTRICITY": 0.00245283, "INCLINATION": 74.0534, "RA_OF_ASC_NODE": 200.5321, "ARG_OF_PERICENTER": 230.6523, "MEAN_ANOMALY": 194.3097, "EPHEMERIS_TYPE": 0, "CLASSIFICATION_TYPE": "U", "NORAD_CAT_ID": 33832, "ELEMENT_SET_NO": 999, "REV_AT_EPOCH": 88497, "BSTAR": 0.00096000761, "MEAN_MOTION_DOT": 4.671e-05, "MEAN_MOTION_DDOT": 0}, "tle": {"line1": "1 33832U 93036BZ  25351.68842322  .00004671  00000+0  96001-3 0  9997", "line2": "2 33832  74.0534 200.5321 0024528 230.6523 194.3097 14.60704045884979"}}, "geometry": {"type": "Point", "coordinates": [-159.81750324554562, 2.8082394258025696]}}, {"type": "Feature", "properties": {"norad_id": 33835, "name": "COSMOS 2251 DEB", "group": "cosmos-2251-debris", "lat": -48.11284689706054, "lon": -70.92619068871858, "alt_km": 690.82848682859, "timestamp": "2025-12-18T07:01:54.982243+00:00", "meta": {"OBJECT_NAME": "COSMOS 2251 DEB", "OBJECT_ID": "1993-036CC", "EPOCH": "2025-12-17T17:32:04.197696", "MEAN_MOTION": 14.62300079, "ECCENTRICITY": 0.00542772, "INCLINATION": 74.0575, "RA_OF_ASC_NODE": 91.5631, "ARG_OF_PERICENTER": 143.6708, "MEAN_ANOMALY": 6.9891, "EPHEMERIS_TYPE": 0, "CLASSIFICATION_TYPE": "U", "NORAD_CAT_ID": 33835, "ELEMENT_SET_NO": 999, "REV_AT_EPOCH": 88862, "BSTAR": 0.00073266599, "MEAN_MOTION_DOT": 3.748e-05, "MEAN_MOTION_DDOT": 0}, "tle": {"line1": "1 33835U 93036CC  25351.73060414  .00003748  00000+0  73267-3 0  9993", "line2": "2 33835  74.0575  91.5631 0054277 143.6708   6.9891 14.62300079888628"}}, "geometry": {"type": "Point", "coordinates": [-70.92619068871858, -48.11284689706054]}}, {"type": "Feature", "properties": {"norad_id": 33836, "name": "COSMOS 2251 DEB", "group": "cosmos-2251-debris", "lat": -57.57191938900315, "lon": 94.84669348420758, "alt_km": 649.52751042614, "timestamp": "2025-12-18T07:01:54.982263+00:00", "meta": {"OBJECT_NAME": "COSMOS 2251 DEB", "OBJECT_ID": "1993-036CD", "EPOCH": "2025-12-17T18:50:36.591936", "MEAN_MOTION": 14.79708649, "ECCENTRICITY": 0.00226795, "INCLINATION": 73.9975, "RA_OF_ASC_NODE": 248.9939, "ARG_OF_PERICENTER": 100.2007, "MEAN_ANOMALY": 316.8188, "EPHEMERIS_TYPE": 0, "CLASSIFICATION_TYPE": "U", "NORAD_CAT_ID": 33836, "ELEMENT_SET_NO": 999, "REV_AT_EPOCH": 64163, "BSTAR": 0.00088657906, "MEAN_MOTION_DOT": 6.662e-05, "MEAN_MOTION_DDOT": 0}, "tle": {"line1": "1 33836U 93036CD  25351.78514574  .00006662  00000+0  88658-3 0  9998", "line2": "2 33836  73.9975 248.9939 0022679 100.2007 316.8188 14.79708649641635"}}, "geometry": {"type": "Point", "coordinates": [94.84669348420758, -57.57191938900315]}}, {"type": "Feature", "properties": {"norad_id": 33837, "name": "COSMOS 2251 DEB", "group": "cosmos-2251-debris", "lat": 1.8275896751165088, "lon": 45.66750609701535, "alt_km": 728.3120041915518, "timestamp": "2025-12-18T07:01:54.982275+00:00", "meta": {"OBJECT_NAME": "COSMOS 2251 DEB", "OBJECT_ID": "1993-036CE", "EPOCH": "2025-12-17T21:05:34.791360", "MEAN_MOTION": 14.50712436, "ECCENTRICITY": 0.00359014, "INCLINATION": 74.0127, "RA_OF_ASC_NODE": 45.9227, "ARG_OF_PERICENTER": 266.8264, "MEAN_ANOMALY": 92.8789, "EPHEMERIS_TYPE": 0, "CLASSIFICATION_TYPE": "U", "NORAD_CAT_ID": 33837, "ELEMENT_SET_NO": 999, "REV_AT_EPOCH": 88870, "BSTAR": 0.0002088133, "MEAN_MOTION_DOT": 7.99e-06, "MEAN_MOTION_DDOT": 0}, "tle": {"line1": "1 33837U 93036CE  25351.87887490  .00000799  00000+0  20881-3 0  9998", "line2": "2 33837  74.0127  45.9227 0035901 266.8264  92.8789 14.50712436888705"}}, "geometry": {"type": "Point", "coordinates": [45.66750609701535, 1.8275896751165088]}}, {"type": "Feature", "properties": {"norad_id": 33838, "name": "COSMOS 2251 DEB", "group": "cosmos-2251-debris", "lat": -6.967670434522618, "lon": -38.58141883061476, "alt_km": 728.7830402420386, "timestamp": "2025-12-18T07:01:54.982285+00:00", "meta": {"OBJECT_NAME": "COSMOS 2251 DEB", "OBJECT_ID": "1993-036CF", "EPOCH": "2025-12-17T20:55:52.472640", "MEAN_MOTION": 14.48378694, "ECCENTRICITY": 0.00274901, "INCLINATION": 74.0361, "RA_OF_ASC_NODE": 140.2017, "ARG_OF_PERICENTER": 261.3723, "MEAN_ANOMALY": 252.5085, "EPHEMERIS_TYPE": 0, "CLASSIFICATION_TYPE": "U", "NORAD_CAT_ID": 33838, "ELEMENT_SET_NO": 999, "REV_AT_EPOCH": 88643, "BSTAR": 0.0003398491, "MEAN_MOTION_DOT": 1.25e-05, "MEAN_MOTION_DDOT": 0}, "tle": {"line1": "1 33838U 93036CF  25351.87213510  .00001250  00000+0  33985-3 0  9997", "line2": "2 33838  74.0361 140.2017 0027490 261.3723 252.5085 14.48378694886439"}}, "geometry": {"type": "Point", "coordinates": [-38.58141883061476, -6.967670434522618]}}, {"type": "Feature", "properties": {"norad_id": 33839, "name": "COSMOS 2251 DEB", "group": "cosmos-2251-debris", "lat": 68.43996455159468, "lon": -117.77189332154208, "alt_km": 709.2515495002981, "timestamp": "2025-12-18T07:01:54.982296+00:00", "meta": {"OBJECT_NAME": "COSMOS 2251 DEB", "OBJECT_ID": "1993-036CG", "EPOCH": "2025-12-17T14:24:32.330880", "MEAN_MOTION": 14.64432353, "ECCENTRICITY": 0.0085241, "INCLINATION": 74.0377, "RA_OF_ASC_NODE": 197.1402, "ARG_OF_PERICENTER": 308.0848, "MEAN_ANOMALY": 76.5287, "EPHEMERIS_TYPE": 0, "CLASSIFICATION_TYPE": "U", "NORAD_CAT_ID": 33839, "ELEMENT_SET_NO": 999, "REV_AT_EPOCH": 89651, "BSTAR": 0.00017314708, "MEAN_MOTION_DOT": 9.32e-06, "MEAN_MOTION_DDOT": 0}, "tle": {"line1": "1 33839U 93036CG  25351.60037420  .00000932  00000+0  17315-3 0  9998", "line2": "2 33839  74.0377 197.1402 0085241 308.0848  76.5287 14.64432353896510"}}, "geometry": {"type": "Point", "coordinates": [-117.77189332154208, 68.43996455159468]}}]}